# Made by eph2tle, compiled Sep 22 2023 13:12:59
# Run at Tue Oct  3 10:45:03 2023
#
# No updates   (archival TLEs)
#
#    The following TLEs (Two-Line Elements) were generated by fitting
# a numerically-integrated ephemeris,  based on the orbit given below,
# to the SDP4/SGP4 models.  Each TLE is good for the interval between
# its epoch and the epoch of the subsequent TLE (usually one day).
# The maximum deviation between the numerically integrated ephemerides
# and the TLE-based ephemeris, in kilometers,  is given for each TLE
# as the "worst residual".
#
#    This fitting is done using the 'eph2tle' code packaged with Find_Orb.
# The code has details on how the TLEs were computed :
#
#    https://github.com/Bill-Gray/find_orb/eph2tle.cpp
#
#    Be warned:  the error given is that between the numerically
# integrated ephems and the TLE model.  There will usually be at
# least some additional difference between the ephems and the actual
# motion of the satellite,  especially if the ephemerides are based
# on a short arc.  If the following orbital elements say something
# like "[based on] 10 observations 2015 Jan. 1-13",  and the TLEs
# are for 2015 May,  the extrapolation may be tenuous at best.  If
# your application requires a specific level of accuracy,  you may
# want to contact me;  I can give you some idea as to the fit of the
# underlying data (and possibly TLEs based on newer data).
#
#   You can usually find the underlying observational data,  and the
# fitted orbit,  residuals,  ephemerides,  and sometimes some comments
# about the object,  among the pages listed at
#
#    https://www.projectpluto.com/pluto/mpecs/pseudo.htm
#
#    WARNING:  The TLEs in this file are all fitted to SGP4,  even if
# they're in deep space (longer than a 225 minute period).  This is only
# done in cases where SDP4 fails or fits the ephemeris poorly.  The problem
# is that,  while SGP4 fits here,  many programs don't actually look at the
# ephemeris type code byte.  They will produce garbage results when using
# these TLEs.  (Sat_ID and all programs by me,  Bill Gray,  will use these
# TLEs correctly.  But I may be the only one doing that.)
#
#    Also,  if you use a TLE outside the "correct" time range (between
# its MJD and that of the next TLE),  all bets are off.  I've carefully
# computed and minimized the worst error over the "correct" time frame,
# but the ephemeris may (or may not) diverge wildly outside of it.
#
# Ephem range: 59945.000000 60310.000000 1.000000
# Created Tue Oct  3 10:44:54 2023
# Ephemeris start:  1 Jan 2023  0:00:00
# Ephemeris end:    1 Jan 2024  0:00:00
# Times are all TDT
# Positions/velocities are in equatorial J2000
# Orbital elements:  2018-103B = NORAD 43846 = Chang'e 4 booster
#    Perigee 2023 Mar 22.936537 +/- 6.64e-5 TT = 22:28:36.8 (JD 2460026.436537)
# Epoch 2023 Apr  5.0 TT; AMR 0.011525 +/- 5.76e-5 m^2/kg          Find_Orb
# M  77.090344107 +/- 0.00036         (J2000 equator)
# n   5.901218280 +/- 7.32e-6         Peri.  155.962611 +/- 0.00050
# a654599.5767 +/- 0.541              Node   282.219098 +/- 0.00055
# e   0.56400929 +/- 1.53e-6          Incl.   38.432719 +/- 0.00022
# P  61.00d                  H 28.25  G  0.15   U  4.8
# q 285399.3341 +/- 1.04    Q 0.006843679 +/- 8.43e-9
# 118 of 162 observations 2022 Oct. 6-2023 Oct. 3; mean residual 9".470
# SGP4 only: these TLEs are _not_ fitted to SDP4,  even for
# deep-space TLEs.  These may not work with your software.
#
# 1 NoradU COSPAR   Epoch.epoch     dn/dt/2  d2n/dt2/6 BSTAR    T El# C
# 2 NoradU Inclina RAAscNode Eccent  ArgPeri MeanAno  MeanMotion Rev# C

# Worst residual: 42.96 km
# MJD 59945.000000 (2023 Jan  1  0:00)
2018-103B = NORAD 43846 = Chang'e 4 booster
1 43846U 18103B   23001.49919926  .00000000  00000-0  00000-0 2 21023
2 43846 058.0972 283.9991 6717214 150.0057 188.6831 00.01638666    06

# Worst residual: 44.13 km
# MJD 59946.000000 (2023 Jan  2  0:00)
2018-103B = NORAD 43846 = Chang'e 4 booster
1 43846U 18103B   23002.49919926  .00000000  00000-0  00000-0 2 21024
2 43846 058.0026 284.0556 6709356 150.7151 191.7926 00.01640513    09

# Worst residual: 44.71 km
# MJD 59947.000000 (2023 Jan  3  0:00)
2018-103B = NORAD 43846 = Chang'e 4 booster
1 43846U 18103B   23003.49919926  .00000000  00000-0  00000-0 2 21025
2 43846 057.8204 284.1578 6700691 151.4208 194.8391 00.01643282    09

# Worst residual: 44.75 km
# MJD 59948.000000 (2023 Jan  4  0:00)
2018-103B = NORAD 43846 = Chang'e 4 booster
1 43846U 18103B   23004.49919926  .00000000  00000-0  00000-0 2 21026
2 43846 057.5465 284.3015 6690853 152.1148 197.8640 00.01646899    09

# Worst residual: 44.26 km
# MJD 59949.000000 (2023 Jan  5  0:00)
2018-103B = NORAD 43846 = Chang'e 4 booster
1 43846U 18103B   23005.49919926  .00000000  00000-0  00000-0 2 21027
2 43846 057.1800 284.4808 6679479 152.7895 200.9075 00.01651268    09

# Worst residual: 43.22 km
# MJD 59950.000000 (2023 Jan  6  0:00)
2018-103B = NORAD 43846 = Chang'e 4 booster
1 43846U 18103B   23006.49919926  .00000000  00000-0  00000-0 2 21028
2 43846 056.7232 284.6888 6666213 153.4385 204.0079 00.01656274    08

# Worst residual: 41.66 km
# MJD 59951.000000 (2023 Jan  7  0:00)
2018-103B = NORAD 43846 = Chang'e 4 booster
1 43846U 18103B   23007.49919926  .00000000  00000-0  00000-0 2 21029
2 43846 056.1814 284.9174 6650727 154.0556 207.2010 00.01661787    04

# Worst residual: 39.63 km
# MJD 59952.000000 (2023 Jan  8  0:00)
2018-103B = NORAD 43846 = Chang'e 4 booster
1 43846U 18103B   23008.49919926  .00000000  00000-0  00000-0 2 21020
2 43846 055.5629 285.1579 6632739 154.6358 210.5200 00.01667663    09

# Worst residual: 37.17 km
# MJD 59953.000000 (2023 Jan  9  0:00)
2018-103B = NORAD 43846 = Chang'e 4 booster
1 43846U 18103B   23009.49919926  .00000000  00000-0  00000-0 2 21021
2 43846 054.8782 285.4014 6612051 155.1745 213.9947 00.01673749    06

# Worst residual: 34.33 km
# MJD 59954.000000 (2023 Jan 10  0:00)
2018-103B = NORAD 43846 = Chang'e 4 booster
1 43846U 18103B   23010.49919926  .00000000  00000-0  00000-0 2 21023
2 43846 054.1401 285.6394 6588579 155.6680 217.6515 00.01679888    02

# Worst residual: 31.15 km
# MJD 59955.000000 (2023 Jan 11  0:00)
2018-103B = NORAD 43846 = Chang'e 4 booster
1 43846U 18103B   23011.49919926  .00000000  00000-0  00000-0 2 21024
2 43846 053.3631 285.8632 6562385 156.1131 221.5135 00.01685918    02

# Worst residual: 29.95 km
# MJD 59956.000000 (2023 Jan 12  0:00)
2018-103B = NORAD 43846 = Chang'e 4 booster
1 43846U 18103B   23012.49919926  .00000000  00000-0  00000-0 2 21025
2 43846 052.5631 286.0655 6533720 156.5071 225.6004 00.01691676    07

# Worst residual: 30.08 km
# MJD 59957.000000 (2023 Jan 13  0:00)
2018-103B = NORAD 43846 = Chang'e 4 booster
1 43846U 18103B   23013.49919926  .00000000  00000-0  00000-0 2 21026
2 43846 051.7570 286.2395 6503070 156.8478 229.9289 00.01697004    05

# Worst residual: 29.90 km
# MJD 59958.000000 (2023 Jan 14  0:00)
2018-103B = NORAD 43846 = Chang'e 4 booster
1 43846U 18103B   23014.49919926  .00000000  00000-0  00000-0 2 21027
2 43846 050.9627 286.3800 6471234 157.1336 234.5125 00.01701754    03

# Worst residual: 28.78 km
# MJD 59959.000000 (2023 Jan 15  0:00)
2018-103B = NORAD 43846 = Chang'e 4 booster
1 43846U 18103B   23015.49919926  .00000000  00000-0  00000-0 2 21028
2 43846 050.1986 286.4834 6439367 157.3642 239.3603 00.01705808    02

# Worst residual: 26.76 km
# MJD 59960.000000 (2023 Jan 16  0:00)
2018-103B = NORAD 43846 = Chang'e 4 booster
1 43846U 18103B   23016.49919926  .00000000  00000-0  00000-0 2 21029
2 43846 049.4831 286.5486 6409066 157.5417 244.4760 00.01709096    05

# Worst residual: 23.78 km
# MJD 59961.000000 (2023 Jan 17  0:00)
2018-103B = NORAD 43846 = Chang'e 4 booster
1 43846U 18103B   23017.49919926  .00000000  00000-0  00000-0 2 21020
2 43846 048.8332 286.5768 6382358 157.6719 249.8546 00.01711633    08

# Worst residual: 19.92 km
# MJD 59962.000000 (2023 Jan 18  0:00)
2018-103B = NORAD 43846 = Chang'e 4 booster
1 43846U 18103B   23018.49919926  .00000000  00000-0  00000-0 2 21021
2 43846 048.2626 286.5724 6361566 157.7663 255.4794 00.01713551    06

# Worst residual: 15.39 km
# MJD 59963.000000 (2023 Jan 19  0:00)
2018-103B = NORAD 43846 = Chang'e 4 booster
1 43846U 18103B   23019.49919926  .00000000  00000-0  00000-0 2 21022
2 43846 047.7784 286.5418 6348853 157.8434 261.3184 00.01715110    08

# Worst residual: 10.81 km
# MJD 59964.000000 (2023 Jan 20  0:00)
2018-103B = NORAD 43846 = Chang'e 4 booster
1 43846U 18103B   23020.49919926  .00000000  00000-0  00000-0 2 21024
2 43846 047.3802 286.4929 6345698 157.9284 267.3218 00.01716727    08

# Worst residual: 11.43 km
# MJD 59965.000000 (2023 Jan 21  0:00)
2018-103B = NORAD 43846 = Chang'e 4 booster
1 43846U 18103B   23021.49919926  .00000000  00000-0  00000-0 2 21025
2 43846 047.0608 286.4330 6352229 158.0506 273.4242 00.01718958    05

# Worst residual: 12.25 km
# MJD 59966.000000 (2023 Jan 22  0:00)
2018-103B = NORAD 43846 = Chang'e 4 booster
1 43846U 18103B   23022.49919926  .00000000  00000-0  00000-0 2 21026
2 43846 046.8096 286.3682 6367201 158.2392 279.5544 00.01722505    08

# Worst residual: 13.14 km
# MJD 59967.000000 (2023 Jan 23  0:00)
2018-103B = NORAD 43846 = Chang'e 4 booster
1 43846U 18103B   23023.49919926  .00000000  00000-0  00000-0 2 21027
2 43846 046.6150 286.3028 6388543 158.5181 285.6534 00.01728136    05

# Worst residual: 14.06 km
# MJD 59968.000000 (2023 Jan 24  0:00)
2018-103B = NORAD 43846 = Chang'e 4 booster
1 43846U 18103B   23024.49919926  .00000000  00000-0  00000-0 2 21028
2 43846 046.4643 286.2392 6413943 158.9017 291.6900 00.01736494    08

# Worst residual: 14.96 km
# MJD 59969.000000 (2023 Jan 25  0:00)
2018-103B = NORAD 43846 = Chang'e 4 booster
1 43846U 18103B   23025.49919926  .00000000  00000-0  00000-0 2 21029
2 43846 046.3444 286.1766 6441113 159.3909 297.6663 00.01747883    01
